[
  {
    "COMMENT": "GENERATED VIA SPACETRACK.ORG API",
    "ORIGINATOR": "18 SPCS",
    "NORAD_CAT_ID": "26997",
    "OBJECT_NAME": "JASON",
    "OBJECT_TYPE": "PAYLOAD",
    "CLASSIFICATION_TYPE": "U",
    "INTLDES": "01055A",
    "EPOCH": "2023-06-11 21:51:11",
    "EPOCH_MICROSECONDS": "830176",
    "MEAN_MOTION": "12.84021926",
    "ECCENTRICITY": "0.0006975",
    "INCLINATION": "66.0386",
    "RA_OF_ASC_NODE": "214.2276",
    "ARG_OF_PERICENTER": "265.5061",
    "MEAN_ANOMALY": "266.7629",
    "EPHEMERIS_TYPE": "0",
    "ELEMENT_SET_NO": "999",
    "REV_AT_EPOCH": "723",
    "BSTAR": "-0.000010399",
    "MEAN_MOTION_DOT": "-0.00000064",
    "MEAN_MOTION_DDOT": "0",
    "FILE": "3930737",
    "TLE_LINE0": "0 JASON",
    "TLE_LINE1": "1 26997U 01055A   23162.91055359 -.00000064  00000-0 -10399-4 0  9993",
    "TLE_LINE2": "2 26997  66.0386 214.2276 0006975 265.5061 266.7629 12.84021926  7235",
    "OBJECT_ID": "2001-055A",
    "OBJECT_NUMBER": "26997",
    "SEMIMAJOR_AXIS": "7703.479",
    "PERIOD": "112.148",
    "APOGEE": "1330.717",
    "PERIGEE": "1319.970",
    "DECAYED": "0"
  },
  {
    "COMMENT": "GENERATED VIA SPACETRACK.ORG API",
    "ORIGINATOR": "18 SPCS",
    "NORAD_CAT_ID": "26997",
    "OBJECT_NAME": "JASON",
    "OBJECT_TYPE": "PAYLOAD",
    "CLASSIFICATION_TYPE": "U",
    "INTLDES": "01055A",
    "EPOCH": "2023-06-12 02:38:58",
    "EPOCH_MICROSECONDS": "845120",
    "MEAN_MOTION": "12.84021947",
    "ECCENTRICITY": "0.0006978",
    "INCLINATION": "66.0385",
    "RA_OF_ASC_NODE": "213.8101",
    "ARG_OF_PERICENTER": "265.5058",
    "MEAN_ANOMALY": "110.4736",
    "EPHEMERIS_TYPE": "0",
    "ELEMENT_SET_NO": "999",
    "REV_AT_EPOCH": "750",
    "BSTAR": "0.0000011029",
    "MEAN_MOTION_DOT": "-0.00000061",
    "MEAN_MOTION_DDOT": "0",
    "FILE": "3930816",
    "TLE_LINE0": "0 JASON",
    "TLE_LINE1": "1 26997U 01055A   23163.11040330 -.00000061  00000-0  11029-5 0  9997",
    "TLE_LINE2": "2 26997  66.0385 213.8101 0006978 265.5058 110.4736 12.84021947  7502",
    "OBJECT_ID": "2001-055A",
    "OBJECT_NUMBER": "26997",
    "SEMIMAJOR_AXIS": "7703.479",
    "PERIOD": "112.148",
    "APOGEE": "1330.719",
    "PERIGEE": "1319.968",
    "DECAYED": "0"
  },
  {
    "COMMENT": "GENERATED VIA SPACETRACK.ORG API",
    "ORIGINATOR": "18 SPCS",
    "NORAD_CAT_ID": "26997",
    "OBJECT_NAME": "JASON",
    "OBJECT_TYPE": "PAYLOAD",
    "CLASSIFICATION_TYPE": "U",
    "INTLDES": "01055A",
    "EPOCH": "2023-06-12 10:06:17",
    "EPOCH_MICROSECONDS": "952768",
    "MEAN_MOTION": "12.84021945",
    "ECCENTRICITY": "0.0006979",
    "INCLINATION": "66.0385",
    "RA_OF_ASC_NODE": "213.1613",
    "ARG_OF_PERICENTER": "265.5198",
    "MEAN_ANOMALY": "106.2352",
    "EPHEMERIS_TYPE": "0",
    "ELEMENT_SET_NO": "999",
    "REV_AT_EPOCH": "730",
    "BSTAR": "0.000012681",
    "MEAN_MOTION_DOT": "-0.00000059",
    "MEAN_MOTION_DDOT": "0",
    "FILE": "3931287",
    "TLE_LINE0": "0 JASON",
    "TLE_LINE1": "1 26997U 01055A   23163.42104112 -.00000059  00000-0  12681-4 0  9991",
    "TLE_LINE2": "2 26997  66.0385 213.1613 0006979 265.5198 106.2352 12.84021945  7302",
    "OBJECT_ID": "2001-055A",
    "OBJECT_NUMBER": "26997",
    "SEMIMAJOR_AXIS": "7703.479",
    "PERIOD": "112.148",
    "APOGEE": "1330.720",
    "PERIGEE": "1319.967",
    "DECAYED": "0"
  },
  {
    "COMMENT": "GENERATED VIA SPACETRACK.ORG API",
    "ORIGINATOR": "18 SPCS",
    "NORAD_CAT_ID": "26997",
    "OBJECT_NAME": "JASON",
    "OBJECT_TYPE": "PAYLOAD",
    "CLASSIFICATION_TYPE": "U",
    "INTLDES": "01055A",
    "EPOCH": "2023-06-12 22:09:05",
    "EPOCH_MICROSECONDS": "502240",
    "MEAN_MOTION": "12.84021932",
    "ECCENTRICITY": "0.0006977",
    "INCLINATION": "66.0384",
    "RA_OF_ASC_NODE": "212.1128",
    "ARG_OF_PERICENTER": "265.5765",
    "MEAN_ANOMALY": "266.1536",
    "EPHEMERIS_TYPE": "0",
    "ELEMENT_SET_NO": "999",
    "REV_AT_EPOCH": "736",
    "BSTAR": "0.000025158",
    "MEAN_MOTION_DOT": "-0.00000056",
    "MEAN_MOTION_DDOT": "0",
    "FILE": "3931605",
    "TLE_LINE0": "0 JASON",
    "TLE_LINE1": "1 26997U 01055A   23163.92298035 -.00000056  00000-0  25158-4 0  9994",
    "TLE_LINE2": "2 26997  66.0384 212.1128 0006977 265.5765 266.1536 12.84021932  7361",
    "OBJECT_ID": "2001-055A",
    "OBJECT_NUMBER": "26997",
    "SEMIMAJOR_AXIS": "7703.479",
    "PERIOD": "112.148",
    "APOGEE": "1330.718",
    "PERIGEE": "1319.969",
    "DECAYED": "0"
  },
  {
    "COMMENT": "GENERATED VIA SPACETRACK.ORG API",
    "ORIGINATOR": "18 SPCS",
    "NORAD_CAT_ID": "26997",
    "OBJECT_NAME": "JASON",
    "OBJECT_TYPE": "PAYLOAD",
    "CLASSIFICATION_TYPE": "U",
    "INTLDES": "01055A",
    "EPOCH": "2023-06-13 13:07:49",
    "EPOCH_MICROSECONDS": "556640",
    "MEAN_MOTION": "12.84021909",
    "ECCENTRICITY": "0.0006983",
    "INCLINATION": "66.0383",
    "RA_OF_ASC_NODE": "210.8092",
    "ARG_OF_PERICENTER": "265.5962",
    "MEAN_ANOMALY": "270.8363",
    "EPHEMERIS_TYPE": "0",
    "ELEMENT_SET_NO": "999",
    "REV_AT_EPOCH": "744",
    "BSTAR": "0.000041628",
    "MEAN_MOTION_DOT": "-0.00000052",
    "MEAN_MOTION_DDOT": "0",
    "FILE": "3932134",
    "TLE_LINE0": "0 JASON",
    "TLE_LINE1": "1 26997U 01055A   23164.54710135 -.00000052  00000-0  41628-4 0  9999",
    "TLE_LINE2": "2 26997  66.0383 210.8092 0006983 265.5962 270.8363 12.84021909  7444",
    "OBJECT_ID": "2001-055A",
    "OBJECT_NUMBER": "26997",
    "SEMIMAJOR_AXIS": "7703.479",
    "PERIOD": "112.148",
    "APOGEE": "1330.723",
    "PERIGEE": "1319.964",
    "DECAYED": "0"
  },
  {
    "COMMENT": "GENERATED VIA SPACETRACK.ORG API",
    "ORIGINATOR": "18 SPCS",
    "NORAD_CAT_ID": "26997",
    "OBJECT_NAME": "JASON",
    "OBJECT_TYPE": "PAYLOAD",
    "CLASSIFICATION_TYPE": "U",
    "INTLDES": "01055A",
    "EPOCH": "2023-06-13 14:59:18",
    "EPOCH_MICROSECONDS": "953952",
    "MEAN_MOTION": "12.84021924",
    "ECCENTRICITY": "0.0006979",
    "INCLINATION": "66.0382",
    "RA_OF_ASC_NODE": "210.6474",
    "ARG_OF_PERICENTER": "265.5979",
    "MEAN_ANOMALY": "268.6884",
    "EPHEMERIS_TYPE": "0",
    "ELEMENT_SET_NO": "999",
    "REV_AT_EPOCH": "745",
    "BSTAR": "0.000049322",
    "MEAN_MOTION_DOT": "-0.0000005",
    "MEAN_MOTION_DDOT": "0",
    "FILE": "3932371",
    "TLE_LINE0": "0 JASON",
    "TLE_LINE1": "1 26997U 01055A   23164.62452493 -.00000050  00000-0  49322-4 0  9995",
    "TLE_LINE2": "2 26997  66.0382 210.6474 0006979 265.5979 268.6884 12.84021924  7459",
    "OBJECT_ID": "2001-055A",
    "OBJECT_NUMBER": "26997",
    "SEMIMAJOR_AXIS": "7703.479",
    "PERIOD": "112.148",
    "APOGEE": "1330.720",
    "PERIGEE": "1319.967",
    "DECAYED": "0"
  },
  {
    "COMMENT": "GENERATED VIA SPACETRACK.ORG API",
    "ORIGINATOR": "18 SPCS",
    "NORAD_CAT_ID": "26997",
    "OBJECT_NAME": "JASON",
    "OBJECT_TYPE": "PAYLOAD",
    "CLASSIFICATION_TYPE": "U",
    "INTLDES": "01055A",
    "EPOCH": "2023-06-14 11:09:23",
    "EPOCH_MICROSECONDS": "315616",
    "MEAN_MOTION": "12.84021962",
    "ECCENTRICITY": "0.0006967",
    "INCLINATION": "66.0382",
    "RA_OF_ASC_NODE": "208.8922",
    "ARG_OF_PERICENTER": "265.6375",
    "MEAN_ANOMALY": "192.6666",
    "EPHEMERIS_TYPE": "0",
    "ELEMENT_SET_NO": "999",
    "REV_AT_EPOCH": "780",
    "BSTAR": "0.000087569",
    "MEAN_MOTION_DOT": "-0.00000041",
    "MEAN_MOTION_DDOT": "0",
    "FILE": "3932742",
    "TLE_LINE0": "0 JASON",
    "TLE_LINE1": "1 26997U 01055A   23165.46485319 -.00000041  00000-0  87569-4 0  9996",
    "TLE_LINE2": "2 26997  66.0382 208.8922 0006967 265.6375 192.6666 12.84021962  7809",
    "OBJECT_ID": "2001-055A",
    "OBJECT_NUMBER": "26997",
    "SEMIMAJOR_AXIS": "7703.478",
    "PERIOD": "112.148",
    "APOGEE": "1330.710",
    "PERIGEE": "1319.976",
    "DECAYED": "0"
  },
  {
    "COMMENT": "GENERATED VIA SPACETRACK.ORG API",
    "ORIGINATOR": "18 SPCS",
    "NORAD_CAT_ID": "26997",
    "OBJECT_NAME": "JASON",
    "OBJECT_TYPE": "PAYLOAD",
    "CLASSIFICATION_TYPE": "U",
    "INTLDES": "01055A",
    "EPOCH": "2023-06-14 11:09:23",
    "EPOCH_MICROSECONDS": "315616",
    "MEAN_MOTION": "12.84021962",
    "ECCENTRICITY": "0.0006967",
    "INCLINATION": "66.0382",
    "RA_OF_ASC_NODE": "208.8922",
    "ARG_OF_PERICENTER": "265.6375",
    "MEAN_ANOMALY": "192.6666",
    "EPHEMERIS_TYPE": "0",
    "ELEMENT_SET_NO": "999",
    "REV_AT_EPOCH": "756",
    "BSTAR": "0.000087569",
    "MEAN_MOTION_DOT": "-0.00000041",
    "MEAN_MOTION_DDOT": "0",
    "FILE": "3932965",
    "TLE_LINE0": "0 JASON",
    "TLE_LINE1": "1 26997U 01055A   23165.46485319 -.00000041  00000-0  87569-4 0  9996",
    "TLE_LINE2": "2 26997  66.0382 208.8922 0006967 265.6375 192.6666 12.84021962  7562",
    "OBJECT_ID": "2001-055A",
    "OBJECT_NUMBER": "26997",
    "SEMIMAJOR_AXIS": "7703.478",
    "PERIOD": "112.148",
    "APOGEE": "1330.710",
    "PERIGEE": "1319.976",
    "DECAYED": "0"
  },
  {
    "COMMENT": "GENERATED VIA SPACETRACK.ORG API",
    "ORIGINATOR": "18 SPCS",
    "NORAD_CAT_ID": "26997",
    "OBJECT_NAME": "JASON",
    "OBJECT_TYPE": "PAYLOAD",
    "CLASSIFICATION_TYPE": "U",
    "INTLDES": "01055A",
    "EPOCH": "2023-06-14 20:53:12",
    "EPOCH_MICROSECONDS": "280128",
    "MEAN_MOTION": "12.84021987",
    "ECCENTRICITY": "0.0006967",
    "INCLINATION": "66.0382",
    "RA_OF_ASC_NODE": "208.0453",
    "ARG_OF_PERICENTER": "265.6917",
    "MEAN_ANOMALY": "266.5099",
    "EPHEMERIS_TYPE": "0",
    "ELEMENT_SET_NO": "999",
    "REV_AT_EPOCH": "761",
    "BSTAR": "0.000097194",
    "MEAN_MOTION_DOT": "-0.00000038",
    "MEAN_MOTION_DDOT": "0",
    "FILE": "3933215",
    "TLE_LINE0": "0 JASON",
    "TLE_LINE1": "1 26997U 01055A   23165.87028102 -.00000038  00000-0  97194-4 0  9995",
    "TLE_LINE2": "2 26997  66.0382 208.0453 0006967 265.6917 266.5099 12.84021987  7619",
    "OBJECT_ID": "2001-055A",
    "OBJECT_NUMBER": "26997",
    "SEMIMAJOR_AXIS": "7703.478",
    "PERIOD": "112.148",
    "APOGEE": "1330.710",
    "PERIGEE": "1319.976",
    "DECAYED": "0"
  }
]